NORAD_CAT_ID,OBJECT_NAME,OBJECT_TYPE,EPOCH,MEAN_MOTION,ECCENTRICITY,INCLINATION,RA_OF_ASC_NODE,ARG_OF_PERICENTER,MEAN_ANOMALY,BSTAR,MEAN_MOTION_DOT,MEAN_MOTION_DDOT,TLE_LINE0,TLE_LINE1,TLE_LINE2,SEMIMAJOR_AXIS,PERIOD,APOGEE,PERIGEE,DECAYED
53530.0,STARLINK-4482,PAYLOAD,2023-09-22 21:44:48,15.07207019,0.0001693,53.2155,149.1027,101.2338,258.8844,0.00043537,6.35e-05,0.0,0 STARLINK-4482,1 53530U 22101D   23265.90611202  .00006350  00000-0  43537-3 0  9990,2 53530  53.2155 149.1027 0001693 101.2338 258.8844 15.07207019 60478,6922.876,95.541,545.913,543.569,0.0
53530.0,STARLINK-4482,PAYLOAD,2023-09-22 23:20:17,15.07210241,0.0001608,53.2153,148.8074,100.8427,259.2745,0.00047375,6.936e-05,0.0,0 STARLINK-4482,1 53530U 22101D   23265.97242293  .00006936  00000-0  47375-3 0  9991,2 53530  53.2153 148.8074 0001608 100.8427 259.2745 15.07210241 60481,6922.866,95.541,545.845,543.618,0.0
53530.0,STARLINK-4482,PAYLOAD,2023-09-23 15:15:10,15.07208291,0.0001511,53.2144,145.8395,99.8424,260.2738,0.00011753,1.506e-05,0.0,0 STARLINK-4482,1 53530U 22101D   23266.63554036  .00001506  00000-0  11753-3 0  9995,2 53530  53.2144 145.8395 0001511  99.8424 260.2738 15.07208291 60588,6922.872,95.541,545.783,543.691,0.0
53530.0,STARLINK-4482,PAYLOAD,2023-09-24 00:48:06,15.07210576,0.0001372,53.2154,144.0559,93.0548,267.0601,1.3881e-05,-7.2e-07,0.0,0 STARLINK-4482,1 53530U 22101D   23267.03341009 -.00000072  00000-0  13881-4 0  9997,2 53530  53.2154 144.0559 0001372  93.0548 267.0601 15.07210576 60640,6922.865,95.541,545.68,543.781,0.0
53530.0,STARLINK-4482,PAYLOAD,2023-09-24 21:29:21,15.07312025,0.0001918,53.2159,140.1954,158.1045,202.0029,0.00094427,0.00014161,0.0,0 STARLINK-4482,1 53530U 22101D   23267.89538455  .00014161  00000-0  94427-3 0  9991,2 53530  53.2159 140.1954 0001918 158.1045 202.0029 15.07312025 60771,6922.555,95.534,545.747,543.092,0.0
53530.0,STARLINK-4482,PAYLOAD,2023-09-25 02:15:52,15.07261697,0.0001406,53.2157,139.3054,89.278,270.8373,0.00046337,6.788e-05,0.0,0 STARLINK-4482,1 53530U 22101D   23268.09435525  .00006788  00000-0  46337-3 0  9991,2 53530  53.2157 139.3054 0001406  89.2780 270.8373 15.07261697 60809,6922.709,95.537,545.547,543.601,0.0
53530.0,STARLINK-4482,PAYLOAD,2023-09-25 08:37:37,15.07392544,0.0001054,53.2157,138.1158,217.6761,142.4156,0.0016162,0.00024529,0.0,0 STARLINK-4482,1 53530U 22101D   23268.35946013  .00024529  00000-0  16162-2 0  9994,2 53530  53.2157 138.1158 0001054 217.6761 142.4156 15.07392544 60849,6922.308,95.529,544.903,543.444,0.0
53530.0,STARLINK-4482,PAYLOAD,2023-09-25 21:20:58,15.07746701,0.0002412,53.2164,135.7387,142.8577,217.2582,0.0043815,0.00068054,0.0,0 STARLINK-4482,1 53530U 22101D   23268.88956355  .00068054  00000-0  43815-2 0  9998,2 53530  53.2164 135.7387 0002412 142.8577 217.2582 15.07746701 60928,6921.224,95.507,544.759,541.42,0.0
53530.0,STARLINK-4482,PAYLOAD,2023-09-25 22:56:24,15.07775251,0.0001501,53.2161,135.4415,91.9489,268.1674,0.0045683,0.00071051,0.0,0 STARLINK-4482,1 53530U 22101D   23268.95583393  .00071051  00000-0  45683-2 0  9990,2 53530  53.2161 135.4415 0001501  91.9489 268.1674 15.07775251 60938,6921.137,95.505,544.041,541.963,0.0
53530.0,STARLINK-4482,PAYLOAD,2023-09-26 06:53:24,15.07997278,0.0001328,53.2162,133.9549,100.2661,259.8481,0.0060468,0.00095032,0.0,0 STARLINK-4482,1 53530U 22101D   23269.28708525  .00095032  00000-0  60468-2 0  9996,2 53530  53.2162 133.9549 0001328 100.2661 259.8481 15.07997278 60986,6920.457,95.491,543.241,541.403,0.0
53530.0,STARLINK-4482,PAYLOAD,2023-09-26 22:00:00,15.08831336,0.0001176,53.2148,131.1328,91.5604,88.5451,-0.0027312,-0.00043482,0.0,0 STARLINK-4482,1 53530U 22101D   23269.91667824 -.00043482  00000-0 -27312-2 0  9997,2 53530  53.2148 131.1328 0001176  91.5604  88.5451 15.08831336 61073,6917.907,95.438,540.585,538.958,0.0
53530.0,STARLINK-4482,PAYLOAD,2023-09-27 00:00:00,15.08800628,0.0001159,53.2149,130.7589,88.619,184.3876,0.0010042,0.00015713,0.0,0 STARLINK-4482,1 53530U 22101D   23270.00001157  .00015713  00000-0  10042-2 0  9996,2 53530  53.2149 130.7589 0001159  88.6190 184.3876 15.08800628  5823,6918.001,95.44,540.668,539.064,0.0
53530.0,STARLINK-4482,PAYLOAD,2023-09-27 14:00:01,15.08812903,0.0001116,53.215,128.1382,100.5106,102.7176,0.0030202,0.00048071,0.0,0 STARLINK-4482,1 53530U 22101D   23270.58334491  .00048071  00000-0  30202-2 0  9992,2 53530  53.2150 128.1382 0001116 100.5106 102.7176 15.08812903 61177,6917.963,95.439,540.6,539.056,0.0
53530.0,STARLINK-4482,PAYLOAD,2023-09-27 22:00:00,15.08828049,0.0001117,53.2149,126.6435,86.9889,127.8112,0.00026563,3.941e-05,0.0,0 STARLINK-4482,1 53530U 22101D   23270.91667824  .00003941  00000-0  26563-3 0  9991,2 53530  53.2149 126.6435 0001117  86.9889 127.8112 15.08828049 61225,6917.917,95.438,540.555,539.009,0.0
53530.0,STARLINK-4482,PAYLOAD,2023-09-28 16:00:30,15.08868881,0.0001121,53.2152,123.2734,96.4429,236.3225,-0.00040305,-6.702e-05,0.0,0 STARLINK-4482,1 53530U 22101D   23271.66702546 -.00006702  00000-0 -40305-3 0  9995,2 53530  53.2152 123.2734 0001121  96.4429 236.3225 15.08868881  5660,6917.792,95.436,540.433,538.882,0.0
53530.0,STARLINK-4482,PAYLOAD,2023-09-28 22:00:01,15.08869082,0.000119,53.215,122.1538,85.6596,164.0022,-0.0035485,-0.00056364,0.0,0 STARLINK-4482,1 53530U 22101D   23271.91668981 -.00056364  00000-0 -35485-2 0  9998,2 53530  53.2150 122.1538 0001190  85.6596 164.0022 15.08869082 61375,6917.791,95.436,540.48,538.833,0.0
53530.0,STARLINK-4482,PAYLOAD,2023-09-29 14:00:01,15.08838162,0.0001237,53.2151,119.1591,98.6316,174.1608,0.0019863,0.00031464,0.0,0 STARLINK-4482,1 53530U 22101D   23272.58334491  .00031464  00000-0  19863-2 0  9992,2 53530  53.2151 119.1591 0001237  98.6316 174.1608 15.08838162 61475,6917.886,95.438,540.607,538.895,0.0
53530.0,STARLINK-4482,PAYLOAD,2023-09-30 00:00:02,15.08825539,0.0001201,53.2149,117.2902,78.3679,299.0126,3.3599e-05,2.47e-06,0.0,0 STARLINK-4482,1 53530U 22101D   23273.00002315  .00000247  00000-0  33599-4 0  9996,2 53530  53.2149 117.2902 0001201  78.3679 299.0126 15.08825539 61549,6917.925,95.438,540.62,538.959,0.0
53530.0,STARLINK-4482,PAYLOAD,2023-10-01 12:29:20,15.08833537,0.0001129,53.2161,110.4643,88.6473,271.4648,0.00027057,4.02e-05,0.0,0 STARLINK-4482,1 53530U 22101D   23274.52037435  .00004020  00000-0  27057-3 0  9999,2 53530  53.2161 110.4643 0001129  88.6473 271.4648 15.08833537 61770,6917.9,95.438,540.546,538.984,0.0
53530.0,STARLINK-4482,PAYLOAD,2023-10-01 18:50:51,15.08868216,0.0001214,53.2169,109.2753,70.8321,289.2802,-0.00015373,-2.736e-05,0.0,0 STARLINK-4482,1 53530U 22101D   23274.78532196 -.00002736  00000-0 -15373-3 0  9993,2 53530  53.2169 109.2753 0001214  70.8321 289.2802 15.08868216 61812,6917.794,95.436,540.499,538.819,0.0
53530.0,STARLINK-4482,PAYLOAD,2023-10-01 20:26:15,15.08856524,0.0001331,53.2174,108.9782,68.5427,291.5707,6.8922e-05,8.1e-06,0.0,0 STARLINK-4482,1 53530U 22101D   23274.85156301  .00000810  00000-0  68922-4 0  9999,2 53530  53.2174 108.9782 0001331  68.5427 291.5707 15.08856524 61827,6917.83,95.437,540.616,538.774,0.0
53530.0,STARLINK-4482,PAYLOAD,2023-10-02 05:58:34,15.08839321,0.0001552,53.2157,107.1912,78.1385,281.9781,8.2686e-06,-1.56e-06,0.0,0 STARLINK-4482,1 53530U 22101D   23275.24901109 -.00000156  00000-0  82686-5 0  9995,2 53530  53.2157 107.1912 0001552  78.1385 281.9781 15.08839321 61886,6917.882,95.438,540.821,538.674,0.0
53530.0,STARLINK-4482,PAYLOAD,2023-10-02 20:17:03,15.08833375,0.0001255,53.2157,104.5148,77.0891,283.0242,3.3393e-05,2.44e-06,0.0,0 STARLINK-4482,1 53530U 22101D   23275.84517985  .00000244  00000-0  33393-4 0  9993,2 53530  53.2157 104.5148 0001255  77.0891 283.0242 15.08833375 61976,6917.901,95.438,540.634,538.897,0.0
53530.0,STARLINK-4482,PAYLOAD,2023-10-03 12:10:54,15.08843511,0.0001103,53.2151,101.543,86.4289,273.6829,6.4725e-05,7.43e-06,0.0,0 STARLINK-4482,1 53530U 22101D   23276.50757320  .00000743  00000-0  64725-4 0  9993,2 53530  53.2151 101.5430 0001103  86.4289 273.6829 15.08843511 62079,6917.87,95.437,540.498,538.972,0.0
53530.0,STARLINK-4482,PAYLOAD,2023-10-03 21:43:12,15.08852743,0.0001271,53.2151,99.7574,89.5391,270.5747,0.00019305,2.787e-05,0.0,0 STARLINK-4482,1 53530U 22101D   23276.90500739  .00002787  00000-0  19305-3 0  9990,2 53530  53.2151  99.7574 0001271  89.5391 270.5747 15.08852743 62139,6917.841,95.437,540.586,538.827,0.0
53530.0,STARLINK-4482,PAYLOAD,2023-10-04 12:01:41,15.08840221,0.0001408,53.2147,97.0809,88.383,271.7324,0.00032687,4.918e-05,0.0,0 STARLINK-4482,1 53530U 22101D   23277.50117490  .00004918  00000-0  32687-3 0  9991,2 53530  53.2147  97.0809 0001408  88.3830 271.7324 15.08840221 62225,6917.88,95.438,540.719,538.771,0.0
53530.0,STARLINK-4482,PAYLOAD,2023-10-04 18:23:13,15.08849862,0.0001288,53.2148,95.891,104.5776,255.5359,0.00028154,4.197e-05,0.0,0 STARLINK-4482,1 53530U 22101D   23277.76612810  .00004197  00000-0  28154-3 0  9998,2 53530  53.2148  95.8910 0001288 104.5776 255.5359 15.08849862 62263,6917.85,95.437,540.606,538.824,0.0
53530.0,STARLINK-4482,PAYLOAD,2023-10-05 05:30:55,15.0884764,0.0001289,53.2158,93.8114,78.0307,282.083,0.00019059,2.747e-05,0.0,0 STARLINK-4482,1 53530U 22101D   23278.22980978  .00002747  00000-0  19059-3 0  9996,2 53530  53.2158  93.8114 0001289  78.0307 282.0830 15.08847640 62333,6917.857,95.437,540.614,538.83,0.0
53530.0,STARLINK-4482,PAYLOAD,2023-10-05 11:52:28,15.08840881,0.0001504,53.2158,92.6174,103.2355,256.8805,0.00018013,2.58e-05,0.0,0 STARLINK-4482,1 53530U 22101D   23278.49477324  .00002580  00000-0  18013-3 0  9995,2 53530  53.2158  92.6174 0001504 103.2355 256.8805 15.08840881 62375,6917.878,95.437,540.783,538.702,0.0
53530.0,STARLINK-4482,PAYLOAD,2023-10-05 18:14:00,15.08843041,0.0001482,53.2154,91.4316,87.0579,273.0583,9.6209e-05,1.244e-05,0.0,0 STARLINK-4482,1 53530U 22101D   23278.75973198  .00001244  00000-0  96209-4 0  9994,2 53530  53.2154  91.4316 0001482  87.0579 273.0583 15.08843041 62418,6917.871,95.437,540.761,538.711,0.0
